NOAA 17                 
1 27453U 02032A   26063.20357508  .00000342  00000+0  16186-3 0  9998
2 27453  98.8532  27.7755 0010711 299.2327  60.7781 14.26185544232023
NOAA 18                 
1 28654U 05018A   26063.16288087  .00000087  00000+0  69078-4 0  9994
2 28654  98.8165 144.3474 0015347  90.1079 270.1852 14.13709605 71477
NOAA 19                 
1 33591U 09005A   26063.14309360  .00000070  00000+0  61398-4 0  9995
2 33591  98.9617 133.9046 0013105 331.2508  28.7941 14.13455591879644
SUOMI NPP               
1 37849U 11061A   26063.17493429  .00000130  00000+0  82549-4 0  9991
2 37849  98.7865   4.8216 0000420 284.0023  76.1106 14.19541755743548
NOAA 20 (JPSS-1)        
1 43013U 17073A   26062.97812112  .00000103  00000+0  69758-4 0  9998
2 43013  98.7686   3.4223 0000939 145.1836 214.9401 14.19534337429545
NOAA 21 (JPSS-2)        
1 54234U 22150A   26063.08337652  .00000119  00000+0  77136-4 0  9997
2 54234  98.7550   3.4137 0002529 116.5333 243.6103 14.19550398171634
