[{"OBJECT_NAME":"NOAA 17","OBJECT_ID":"2002-032A","EPOCH":"2026-03-04T04:53:08.886912","MEAN_MOTION":14.26185544,"ECCENTRICITY":0.0010711,"INCLINATION":98.8532,"RA_OF_ASC_NODE":27.7755,"ARG_OF_PERICENTER":299.2327,"MEAN_ANOMALY":60.7781,"EPHEMERIS_TYPE":0,"CLASSIFICATION_TYPE":"U","NORAD_CAT_ID":27453,"ELEMENT_SET_NO":999,"REV_AT_EPOCH":23202,"BSTAR":0.00016186,"MEAN_MOTION_DOT":3.42e-6,"MEAN_MOTION_DDOT":0},{"OBJECT_NAME":"NOAA 18","OBJECT_ID":"2005-018A","EPOCH":"2026-03-04T03:54:32.907168","MEAN_MOTION":14.13709605,"ECCENTRICITY":0.0015347,"INCLINATION":98.8165,"RA_OF_ASC_NODE":144.3474,"ARG_OF_PERICENTER":90.1079,"MEAN_ANOMALY":270.1852,"EPHEMERIS_TYPE":0,"CLASSIFICATION_TYPE":"U","NORAD_CAT_ID":28654,"ELEMENT_SET_NO":999,"REV_AT_EPOCH":7147,"BSTAR":6.9078e-5,"MEAN_MOTION_DOT":8.7e-7,"MEAN_MOTION_DDOT":0},{"OBJECT_NAME":"NOAA 19","OBJECT_ID":"2009-005A","EPOCH":"2026-03-04T03:26:03.287040","MEAN_MOTION":14.13455591,"ECCENTRICITY":0.0013105,"INCLINATION":98.9617,"RA_OF_ASC_NODE":133.9046,"ARG_OF_PERICENTER":331.2508,"MEAN_ANOMALY":28.7941,"EPHEMERIS_TYPE":0,"CLASSIFICATION_TYPE":"U","NORAD_CAT_ID":33591,"ELEMENT_SET_NO":999,"REV_AT_EPOCH":87964,"BSTAR":6.1398e-5,"MEAN_MOTION_DOT":7.0e-7,"MEAN_MOTION_DDOT":0},{"OBJECT_NAME":"SUOMI NPP","OBJECT_ID":"2011-061A","EPOCH":"2026-03-04T04:11:54.322656","MEAN_MOTION":14.19541755,"ECCENTRICITY":4.2e-5,"INCLINATION":98.7865,"RA_OF_ASC_NODE":4.8216,"ARG_OF_PERICENTER":284.0023,"MEAN_ANOMALY":76.1106,"EPHEMERIS_TYPE":0,"CLASSIFICATION_TYPE":"U","NORAD_CAT_ID":37849,"ELEMENT_SET_NO":999,"REV_AT_EPOCH":74354,"BSTAR":8.2549e-5,"MEAN_MOTION_DOT":1.3e-6,"MEAN_MOTION_DDOT":0},{"OBJECT_NAME":"NOAA 20 (JPSS-1)","OBJECT_ID":"2017-073A","EPOCH":"2026-03-03T23:28:29.664768","MEAN_MOTION":14.19534337,"ECCENTRICITY":9.39e-5,"INCLINATION":98.7686,"RA_OF_ASC_NODE":3.4223,"ARG_OF_PERICENTER":145.1836,"MEAN_ANOMALY":214.9401,"EPHEMERIS_TYPE":0,"CLASSIFICATION_TYPE":"U","NORAD_CAT_ID":43013,"ELEMENT_SET_NO":999,"REV_AT_EPOCH":42954,"BSTAR":6.9758e-5,"MEAN_MOTION_DOT":1.03e-6,"MEAN_MOTION_DDOT":0},{"OBJECT_NAME":"NOAA 21 (JPSS-2)","OBJECT_ID":"2022-150A","EPOCH":"2026-03-04T02:00:03.731328","MEAN_MOTION":14.19550398,"ECCENTRICITY":0.0002529,"INCLINATION":98.755,"RA_OF_ASC_NODE":3.4137,"ARG_OF_PERICENTER":116.5333,"MEAN_ANOMALY":243.6103,"EPHEMERIS_TYPE":0,"CLASSIFICATION_TYPE":"U","NORAD_CAT_ID":54234,"ELEMENT_SET_NO":999,"REV_AT_EPOCH":17163,"BSTAR":7.7136e-5,"MEAN_MOTION_DOT":1.19e-6,"MEAN_MOTION_DDOT":0}]
